{"type": "FeatureCollection", "features": [ {"type": "Feature", "properties": {"norad_id": 36402, "name": "COSMOS 2460 (732)", "group": "gnss", "lat": -7.415674365417773, "lon": 144.4345392150471, "alt_km": 19130.073504343305, "timestamp": "2025-12-04T15:47:54.339493+00:00", "meta": {"OBJECT_NAME": "COSMOS 2460 (732)", "OBJECT_ID": "2010-007C", "EPOCH": "2025-12-01T05:49:09.827040", "MEAN_MOTION": 2.13106053, "ECCENTRICITY": 0.00028009, "INCLINATION": 65.536, "RA_OF_ASC_NODE": 321.162, "ARG_OF_PERICENTER": 269.9918, "MEAN_ANOMALY": 177.6167, "EPHEMERIS_TYPE": 0, "CLASSIFICATION_TYPE": "U", "NORAD_CAT_ID": 36402, "ELEMENT_SET_NO": 999, "REV_AT_EPOCH": 12251, "BSTAR": 0, "MEAN_MOTION_DOT": -2.6e-07, "MEAN_MOTION_DDOT": 0}, "tle": {"line1": "1 36402U 10007C   25335.24247485 -.00000026  00000+0  00000+0 0  9994", "line2": "2 36402  65.5360 321.1620 0002800 269.9918 177.6167  2.13106053122518"}}, "geometry": {"type": "Point", "coordinates": [144.4345392150471, -7.415674365417773]}}, {"type": "Feature", "properties": {"norad_id": 36585, "name": "GPS BIIF-1  (PRN 25)", "group": "gnss", "lat": 49.7992361628662, "lon": -21.8090505810854, "alt_km": 19938.540931237385, "timestamp": "2025-12-04T15:47:54.339505+00:00", "meta": {"OBJECT_NAME": "GPS BIIF-1  (PRN 25)", "OBJECT_ID": "2010-022A", "EPOCH": "2025-12-04T06:16:58.952352", "MEAN_MOTION": 2.00552666, "ECCENTRICITY": 0.01257612, "INCLINATION": 54.3017, "RA_OF_ASC_NODE": 216.4159, "ARG_OF_PERICENTER": 64.9818, "MEAN_ANOMALY": 117.6828, "EPHEMERIS_TYPE": 0, "CLASSIFICATION_TYPE": "U", "NORAD_CAT_ID": 36585, "ELEMENT_SET_NO": 999, "REV_AT_EPOCH": 11368, "BSTAR": 0, "MEAN_MOTION_DOT": 7e-07, "MEAN_MOTION_DDOT": 0}, "tle": {"line1": "1 36585U 10022A   25338.26179343  .00000070  00000+0  00000+0 0  9993", "line2": "2 36585  54.3017 216.4159 0125761  64.9818 117.6828  2.00552666113689"}}, "geometry": {"type": "Point", "coordinates": [-21.8090505810854, 49.7992361628662]}}, {"type": "Feature", "properties": {"norad_id": 36828, "name": "BEIDOU-2 IGSO-1 (C06)", "group": "gnss", "lat": -51.276721383602585, "lon": 48.72610996462909, "alt_km": 35620.10535341367, "timestamp": "2025-12-04T15:47:54.339517+00:00", "meta": {"OBJECT_NAME": "BEIDOU-2 IGSO-1 (C06)", "OBJECT_ID": "2010-036A", "EPOCH": "2025-12-03T10:50:44.943648", "MEAN_MOTION": 1.00278626, "ECCENTRICITY": 0.00512649, "INCLINATION": 54.2837, "RA_OF_ASC_NODE": 164.7326, "ARG_OF_PERICENTER": 215.7728, "MEAN_ANOMALY": 322.4753, "EPHEMERIS_TYPE": 0, "CLASSIFICATION_TYPE": "U", "NORAD_CAT_ID": 36828, "ELEMENT_SET_NO": 999, "REV_AT_EPOCH": 5613, "BSTAR": 0, "MEAN_MOTION_DOT": -2.4e-07, "MEAN_MOTION_DDOT": 0}, "tle": {"line1": "1 36828U 10036A   25337.45190907 -.00000024  00000+0  00000+0 0  9997", "line2": "2 36828  54.2837 164.7326 0051264 215.7728 322.4753  1.00278626 56130"}}, "geometry": {"type": "Point", "coordinates": [48.72610996462909, -51.276721383602585]}}, {"type": "Feature", "properties": {"norad_id": 37210, "name": "BEIDOU-2 G4 (C04)", "group": "gnss", "lat": 2.0805867807639014, "lon": 110.64876428064768, "alt_km": 35825.21510772063, "timestamp": "2025-12-04T15:47:54.339530+00:00", "meta": {"OBJECT_NAME": "BEIDOU-2 G4 (C04)", "OBJECT_ID": "2010-057A", "EPOCH": "2025-12-04T05:55:37.533216", "MEAN_MOTION": 1.00271298, "ECCENTRICITY": 0.00109363, "INCLINATION": 3.1621, "RA_OF_ASC_NODE": 69.9588, "ARG_OF_PERICENTER": 188.7123, "MEAN_ANOMALY": 63.6293, "EPHEMERIS_TYPE": 0, "CLASSIFICATION_TYPE": "U", "NORAD_CAT_ID": 37210, "ELEMENT_SET_NO": 999, "REV_AT_EPOCH": 5533, "BSTAR": 0, "MEAN_MOTION_DOT": -9.7e-07, "MEAN_MOTION_DDOT": 0}, "tle": {"line1": "1 37210U 10057A   25338.24696219 -.00000097  00000+0  00000+0 0  9991", "line2": "2 37210   3.1621  69.9588 0010936 188.7123  63.6293  1.00271298 55337"}}, "geometry": {"type": "Point", "coordinates": [110.64876428064768, 2.0805867807639014]}}, {"type": "Feature", "properties": {"norad_id": 37256, "name": "BEIDOU-2 IGSO-2 (C07)", "group": "gnss", "lat": 26.4150329338905, "lon": 67.58522904076385, "alt_km": 35716.661041292, "timestamp": "2025-12-04T15:47:54.339542+00:00", "meta": {"OBJECT_NAME": "BEIDOU-2 IGSO-2 (C07)", "OBJECT_ID": "2010-068A", "EPOCH": "2025-12-03T17:22:36.030432", "MEAN_MOTION": 1.0028871, "ECCENTRICITY": 0.00492335, "INCLINATION": 47.9043, "RA_OF_ASC_NODE": 274.2613, "ARG_OF_PERICENTER": 216.1442, "MEAN_ANOMALY": 310.2369, "EPHEMERIS_TYPE": 0, "CLASSIFICATION_TYPE": "U", "NORAD_CAT_ID": 37256, "ELEMENT_SET_NO": 999, "REV_AT_EPOCH": 5483, "BSTAR": 0, "MEAN_MOTION_DOT": -2.25e-06, "MEAN_MOTION_DDOT": 0}, "tle": {"line1": "1 37256U 10068A   25337.72402813 -.00000225  00000+0  00000+0 0  9993", "line2": "2 37256  47.9043 274.2613 0049233 216.1442 310.2369  1.00288710 54839"}}, "geometry": {"type": "Point", "coordinates": [67.58522904076385, 26.4150329338905]}}, {"type": "Feature", "properties": {"norad_id": 37384, "name": "BEIDOU-2 IGSO-3 (C08)", "group": "gnss", "lat": 14.332333028615762, "lon": 49.78461684907609, "alt_km": 35932.42575541074, "timestamp": "2025-12-04T15:47:54.339555+00:00", "meta": {"OBJECT_NAME": "BEIDOU-2 IGSO-3 (C08)", "OBJECT_ID": "2011-013A", "EPOCH": "2025-12-03T14:52:09.520896", "MEAN_MOTION": 1.00272128, "ECCENTRICITY": 0.00353922, "INCLINATION": 62.1308, "RA_OF_ASC_NODE": 42.005, "ARG_OF_PERICENTER": 186.5359, "MEAN_ANOMALY": 174.9093, "EPHEMERIS_TYPE": 0, "CLASSIFICATION_TYPE": "U", "NORAD_CAT_ID": 37384, "ELEMENT_SET_NO": 999, "REV_AT_EPOCH": 5370, "BSTAR": 0, "MEAN_MOTION_DOT": -1.99e-06, "MEAN_MOTION_DDOT": 0}, "tle": {"line1": "1 37384U 11013A   25337.61955464 -.00000199  00000+0  00000+0 0  9999", "line2": "2 37384  62.1308  42.0050 0035392 186.5359 174.9093  1.00272128 53708"}}, "geometry": {"type": "Point", "coordinates": [49.78461684907609, 14.332333028615762]}}, {"type": "Feature", "properties": {"norad_id": 37605, "name": "GSAT-8 (GAGAN/PRN 127)", "group": "gnss", "lat": -1.5768806249832412, "lon": 5.882047329674171, "alt_km": 35795.17904015878, "timestamp": "2025-12-04T15:47:54.339567+00:00", "meta": {"OBJECT_NAME": "GSAT-8 (GAGAN/PRN 127)", "OBJECT_ID": "2011-022A", "EPOCH": "2025-12-04T03:42:57.742272", "MEAN_MOTION": 1.00272963, "ECCENTRICITY": 0.00090516, "INCLINATION": 1.6259, "RA_OF_ASC_NODE": 84.2835, "ARG_OF_PERICENTER": 177.66, "MEAN_ANOMALY": 282.1161, "EPHEMERIS_TYPE": 0, "CLASSIFICATION_TYPE": "U", "NORAD_CAT_ID": 37605, "ELEMENT_SET_NO": 999, "REV_AT_EPOCH": 5126, "BSTAR": 0, "MEAN_MOTION_DOT": 1e-06, "MEAN_MOTION_DDOT": 0}, "tle": {"line1": "1 37605U 11022A   25338.15483498  .00000100  00000+0  00000+0 0  9999", "line2": "2 37605   1.6259  84.2835 0009051 177.6600 282.1161  1.00272963 51263"}}, "geometry": {"type": "Point", "coordinates": [5.882047329674171, -1.5768806249832412]}}, {"type": "Feature", "properties": {"norad_id": 37763, "name": "BEIDOU-2 IGSO-4 (C09)", "group": "gnss", "lat": -43.42554525557832, "lon": 29.848811623479016, "alt_km": 35164.86512412615, "timestamp": "2025-12-04T15:47:54.339580+00:00", "meta": {"OBJECT_NAME": "BEIDOU-2 IGSO-4 (C09)", "OBJECT_ID": "2011-038A", "EPOCH": "2025-12-01T12:32:09.960864", "MEAN_MOTION": 1.00284074, "ECCENTRICITY": 0.01487808, "INCLINATION": 54.5808, "RA_OF_ASC_NODE": 167.4476, "ARG_OF_PERICENTER": 230.2031, "MEAN_ANOMALY": 315.0387, "EPHEMERIS_TYPE": 0, "CLASSIFICATION_TYPE": "U", "NORAD_CAT_ID": 37763, "ELEMENT_SET_NO": 999, "REV_AT_EPOCH": 5266, "BSTAR": 0, "MEAN_MOTION_DOT": 1.01e-06, "MEAN_MOTION_DDOT": 0}, "tle": {"line1": "1 37763U 11038A   25335.52233751  .00000101  00000+0  00000+0 0  9995", "line2": "2 37763  54.5808 167.4476 0148780 230.2031 315.0387  1.00284074 52664"}}, "geometry": {"type": "Point", "coordinates": [29.848811623479016, -43.42554525557832]}}, {"type": "Feature", "properties": {"norad_id": 37846, "name": "GSAT0101 (GALILEO-PFM)", "group": "gnss", "lat": -15.599335604492696, "lon": -23.389415667126798, "alt_km": 23217.20733904055, "timestamp": "2025-12-04T15:47:54.339594+00:00", "meta": {"OBJECT_NAME": "GSAT0101 (GALILEO-PFM)", "OBJECT_ID": "2011-060A", "EPOCH": "2025-12-03T12:22:23.898432", "MEAN_MOTION": 1.70475497, "ECCENTRICITY": 0.00027974, "INCLINATION": 57.0548, "RA_OF_ASC_NODE": 347.0705, "ARG_OF_PERICENTER": 310.1579, "MEAN_ANOMALY": 49.8533, "EPHEMERIS_TYPE": 0, "CLASSIFICATION_TYPE": "U", "NORAD_CAT_ID": 37846, "ELEMENT_SET_NO": 999, "REV_AT_EPOCH": 8778, "BSTAR": 0, "MEAN_MOTION_DOT": -6.8e-07, "MEAN_MOTION_DDOT": 0}, "tle": {"line1": "1 37846U 11060A   25337.51555438 -.00000068  00000+0  00000+0 0  9995", "line2": "2 37846  57.0548 347.0705 0002797 310.1579  49.8533  1.70475497 87782"}}, "geometry": {"type": "Point", "coordinates": [-23.389415667126798, -15.599335604492696]}}, {"type": "Feature", "properties": {"norad_id": 37847, "name": "GSAT0102 (GALILEO-FM2)", "group": "gnss", "lat": 22.23052779306596, "lon": 2.4171372852405275, "alt_km": 23217.110223397933, "timestamp": "2025-12-04T15:47:54.339612+00:00", "meta": {"OBJECT_NAME": "GSAT0102 (GALILEO-FM2)", "OBJECT_ID": "2011-060B", "EPOCH": "2025-12-02T06:27:38.704608", "MEAN_MOTION": 1.70475743, "ECCENTRICITY": 0.00047518, "INCLINATION": 57.0559, "RA_OF_ASC_NODE": 347.1049, "ARG_OF_PERICENTER": 306.1199, "MEAN_ANOMALY": 54.4344, "EPHEMERIS_TYPE": 0, "CLASSIFICATION_TYPE": "U", "NORAD_CAT_ID": 37847, "ELEMENT_SET_NO": 999, "REV_AT_EPOCH": 8777, "BSTAR": 0, "MEAN_MOTION_DOT": -6.2e-07, "MEAN_MOTION_DDOT": 0}, "tle": {"line1": "1 37847U 11060B   25336.26919797 -.00000062  00000+0  00000+0 0  9993", "line2": "2 37847  57.0559 347.1049 0004751 306.1199  54.4344  1.70475743 87777"}}, "geometry": {"type": "Point", "coordinates": [2.4171372852405275, 22.23052779306596]}}]}